{
  "schema_version": 1,
  "seed": 123456789,
  "age_s": 7.1051001508061784e+16,
  "stars": [
    {
      "mass_kg": 2.2399316557768857e+30,
      "radius_m": 744464428.3033822,
      "luminosity_w": 6.158029133898099e+26,
      "temperature_k": 6283.951160239945,
      "main_sequence_lifetime_s": 2.344732824120492e+17,
      "orbit": null
    },
    {
      "mass_kg": 1.909950317362499e+30,
      "radius_m": 673512728.3924899,
      "luminosity_w": 3.2552994933649986e+26,
      "temperature_k": 5633.381661140236,
      "main_sequence_lifetime_s": 3.492409059207977e+17,
      "orbit": {
        "semi_major_axis_m": 57263714836484.91,
        "eccentricity": 0.16669957582757877,
        "inclination_rad": 0.03840172733837074,
        "raan_rad": 2.81815463722151,
        "arg_periapsis_rad": 1.894581457974511,
        "mean_anomaly_epoch_rad": 3.859100375187903
      }
    }
  ],
  "planet_host": "Primary",
  "planets": [
    {
      "class": "GasGiant",
      "mass_kg": 4.9092033644420096e+27,
      "radius_m": 67661656.66141255,
      "orbit": {
        "semi_major_axis_m": 3393368885024.371,
        "eccentricity": 0.03374165898449406,
        "inclination_rad": 0.029935717071106174,
        "raan_rad": 2.331508305564176,
        "arg_periapsis_rad": 2.5433476259431456,
        "mean_anomaly_epoch_rad": 2.2166784822142134
      },
      "secular": {
        "apsidal_rad_per_s": 2.8797688384507764e-18,
        "nodal_rad_per_s": 0.0,
        "migration_m_per_s": 0.0
      },
      "axial_tilt_rad": 0.3082880420021075,
      "axial_precession_rad_per_s": 1.2361834289790984e-11,
      "rotation_period_s": 45120.66584906434,
      "spin_drift_s_per_s": 5.890552754183204e-14,
      "state": "Living",
      "moons": [
        {
          "mass_kg": 3.997619227382851e+23,
          "radius_m": 3168573.9963678843,
          "orbit": {
            "semi_major_axis_m": 669271874.3242896,
            "eccentricity": 0.05535763527021974,
            "inclination_rad": 0.01778321264668663,
            "raan_rad": 5.5397102716651,
            "arg_periapsis_rad": 3.4896321430449615,
            "mean_anomaly_epoch_rad": 6.085426531705583
          },
          "secular": {
            "apsidal_rad_per_s": 1.8224458904191657e-13,
            "nodal_rad_per_s": -8.678313763900788e-14,
            "migration_m_per_s": 1.4575602667328833e-6
          },
          "tidally_locked": true,
          "rotation_period_s": 190053.27450615476,
          "doom_time_s": null
        },
        {
          "mass_kg": 7.139908608166521e+23,
          "radius_m": 3844391.3929243577,
          "orbit": {
            "semi_major_axis_m": 1598942849.7758615,
            "eccentricity": 0.0065053986072809615,
            "inclination_rad": 0.010206323712232774,
            "raan_rad": 0.9592750889496329,
            "arg_periapsis_rad": 3.9036784472193466,
            "mean_anomaly_epoch_rad": 0.3300465613166467
          },
          "secular": {
            "apsidal_rad_per_s": 6.730483242678189e-13,
            "nodal_rad_per_s": -3.204992020322947e-13,
            "migration_m_per_s": 2.1639674857793666e-8
          },
          "tidally_locked": true,
          "rotation_period_s": 701812.1891424748,
          "doom_time_s": null
        },
        {
          "mass_kg": 2.464286960883899e+23,
          "radius_m": 2696665.868543148,
          "orbit": {
            "semi_major_axis_m": 3801253055.8392444,
            "eccentricity": 0.04599622686179064,
            "inclination_rad": 0.08368386530159275,
            "raan_rad": 0.3189991176453453,
            "arg_periapsis_rad": 5.088673438522378,
            "mean_anomaly_epoch_rad": 5.205593534720739
          },
          "secular": {
            "apsidal_rad_per_s": 2.458596003026641e-12,
            "nodal_rad_per_s": -1.1707600014412576e-12,
            "migration_m_per_s": 6.378715489727563e-11
          },
          "tidally_locked": true,
          "rotation_period_s": 2572537.2284125495,
          "doom_time_s": null
        },
        {
          "mass_kg": 1.5364244678513032e+23,
          "radius_m": 2303741.7002328997,
          "orbit": {
            "semi_major_axis_m": 6665158395.183339,
            "eccentricity": 0.057457632867499726,
            "inclination_rad": 0.0038004284433834357,
            "raan_rad": 0.9174399652150117,
            "arg_periapsis_rad": 2.464371865297543,
            "mean_anomaly_epoch_rad": 5.295237463165836
          },
          "secular": {
            "apsidal_rad_per_s": 5.728382794076159e-12,
            "nodal_rad_per_s": -2.7278013305124565e-12,
            "migration_m_per_s": 1.812144640484823e-12
          },
          "tidally_locked": true,
          "rotation_period_s": 5972927.001657127,
          "doom_time_s": null
        },
        {
          "mass_kg": 6.607337026451791e+22,
          "radius_m": 1738890.3549661657,
          "orbit": {
            "semi_major_axis_m": 12369312759.831419,
            "eccentricity": 0.07338500778847125,
            "inclination_rad": 0.04934967431332728,
            "raan_rad": 5.579766313289981,
            "arg_periapsis_rad": 4.252736198814829,
            "mean_anomaly_epoch_rad": 3.1993606266429455
          },
          "secular": {
            "apsidal_rad_per_s": 1.446467762777687e-11,
            "nodal_rad_per_s": -6.887941727512795e-12,
            "migration_m_per_s": 2.598753428472459e-14
          },
          "tidally_locked": false,
          "rotation_period_s": 52466.58573227947,
          "doom_time_s": null
        },
        {
          "mass_kg": 8.310110072321517e+22,
          "radius_m": 1877005.8986431912,
          "orbit": {
            "semi_major_axis_m": 23814190082.749996,
            "eccentricity": 0.0644679302910991,
            "inclination_rad": 0.07123843329454214,
            "raan_rad": 2.054362036280506,
            "arg_periapsis_rad": 0.6763171965632436,
            "mean_anomaly_epoch_rad": 3.1217533665322743
          },
          "secular": {
            "apsidal_rad_per_s": 3.8589596944056896e-11,
            "nodal_rad_per_s": -1.8375998544788996e-11,
            "migration_m_per_s": 8.905310049497443e-16
          },
          "tidally_locked": false,
          "rotation_period_s": 91635.41384319594,
          "doom_time_s": null
        }
      ],
      "calendar": null
    }
  ],
  "anchor_planet": 4
}
